GOMX-1                  
1 39430U 13066Q   24131.93957801  .00007171  00000+0  11937-2 0  9996
2 39430  97.7369   8.5724 0141108  11.9304 348.5184 14.63900215557417
CUBEBUG-2 (LO-74)       
1 39440U 13066AA  24131.80232720  .00009695  00000+0  11499-2 0  9995
2 39440  97.8122  76.2950 0071845  37.6497 322.9714 14.82844012562792
NEE-02 KRYSAOR          
1 39441U 13066AB  24131.78265898  .00006377  00000+0  81298-3 0  9994
2 39441  97.8215  72.2890 0076361  58.2977 302.5650 14.79775962562409
FUNCUBE-1 (AO-73)       
1 39444U 13066AE  24131.45122839  .00010405  00000+0  10239-2 0  9991
2 39444  97.7182  91.3182 0046387 266.4690  93.1223 14.91464659564481
UWE-3                   
1 39446U 13066AG  24131.60845656  .00009373  00000+0  10533-2 0  9998
2 39446  97.7796  82.1685 0060485 344.9526  14.9888 14.85602369563128
BRITE-CA1 (TORONTO)     
1 40020U 14033L   24131.90746597  .00003938  00000+0  64208-3 0  9990
2 40020  97.8721 270.3580 0082816 210.3786 149.2608 14.69241328529397
DUCHIFAT-1              
1 40021U 14033M   24131.90456520  .00029196  00000+0  19977-2 0  9991
2 40021  98.0890 113.8603 0011761 218.8765 141.1616 15.06002785538514
NANOSATC-BR1            
1 40024U 14033Q   24131.85828839  .00023023  00000+0  17394-2 0  9998
2 40024  98.0636 102.4401 0004814 304.3615  55.7153 15.02376128537641
QB50P1                  
1 40025U 14033R   24131.84732033  .00016837  00000+0  13899-2 0  9999
2 40025  98.0426  91.4045 0007329 290.6943  69.3493 14.99044179537792
QB50P2                  
1 40032U 14033Y   24131.85096400  .00014407  00000+0  12298-2 0  9992
2 40032  98.0045  83.3405 0008400 282.6897  77.3385 14.97777661537603
PERSEUS-M2              
1 40037U 14033AD  24131.76451496  .00004264  00000+0  44501-3 0  9990
2 40037  97.9266  62.4311 0012244 325.1867  34.8549 14.90224765536251
PERSEUS-M1              
1 40039U 14033AF  24131.78397877  .00004041  00000+0  42455-3 0  9995
2 40039  97.9070  58.6127 0012059 324.3861  35.6550 14.89984300536119
POLYITAN-1              
1 40042U 14033AJ  24131.84911611  .00023583  00000+0  18206-2 0  9992
2 40042  98.0658  94.6307 0012381 260.6747  99.3077 15.01498098537234
TIGRISAT                
1 40043U 14033AK  24131.92487323  .00007048  00000+0  94230-3 0  9990
2 40043  97.6923 296.2791 0056790  65.7975 294.9158 14.78659891531950
AEROCUBE 6A             
1 40045U 14033AM  24131.75366844  .00009893  00000+0  11972-2 0  9998
2 40045  97.6683 306.7312 0051504  45.9094 314.6342 14.82907221532247
AEROCUBE 6B             
1 40046U 14033AN  24131.74382639  .00009550  00000+0  11337-2 0  9993
2 40046  97.6645 305.3942 0050034  41.6232 318.8774 14.83764819532299
UKUBE-1                 
1 40074U 14037F   24131.68473049  .00012117  00000+0  11679-2 0  9999
2 40074  98.3433  59.3251 0003987 165.1624 194.9712 14.93075527533180
BRITE-PL2 (HEWELIUSZ)   
1 40119U 14049B   24131.91559516  .00005642  00000+0  60989-3 0  9996
2 40119  97.8803 231.7618 0017129 125.1758 235.1066 14.88597874527030
CP10 (EXOCUBE)          
1 40380U 15003E   24131.78980660  .00287390  00000+0  18597-2 0  9999
2 40380  99.0948 146.9427 0040670 235.8672 123.8727 15.74092166513537
AEROCUBE 5C             
1 40965U 15058B   24131.35870125  .00009575  00000+0  88802-3 0  9999
2 40965  64.7689 117.7626 0188628 319.8675  38.8624 14.82336424251431
AEROCUBE 7              
1 40966U 15058C   24131.35298529  .00012478  00000+0  11154-2 0  9993
2 40966  64.7669 111.8907 0183903 319.5403  39.2148 14.84088252251491
BISONSAT                
1 40968U 15058E   24131.96454300  .00015004  00000+0  13566-2 0  9990
2 40968  64.7766 122.7380 0183550 314.4929  44.1296 14.83609821  2293
SNAP-3 ALICE            
1 40970U 15058G   24131.92861628  .00043703  00000+0  31179-2 0  9991
2 40970  64.7716  82.2841 0155794 312.6201  46.1860 14.94979104   210
SNAP-3 EDDIE            
1 40972U 15058J   24131.94774977  .00043591  00000+0  30721-2 0  9992
2 40972  64.7703  75.7101 0156176 313.4885  45.3330 14.95371407  2315
PROPCUBE 3              
1 40973U 15058K   24131.65046974  .00010884  00000+0  98673-3 0  9990
2 40973  64.7706 114.2745 0185867 318.3114  40.3950 14.83419920   467
SINOD-D 1               
1 40974U 15058L   24131.94778376  .00032969  00000+0  25794-2 0  9992
2 40974  64.7690  89.0182 0168521 315.9456  42.8327 14.90325725   219
PROPCUBE 1 (FLORA)      
1 40976U 15058N   24131.74786461  .00007724  00000+0  75853-3 0  9999
2 40976  64.7742 141.0323 0187204 318.1563  40.5357 14.80559856  2255
SINOD-D 3               
1 40977U 15058P   24131.44900456  .00010232  00000+0  96561-3 0  9996
2 40977  64.7738 135.6079 0182378 317.4466  41.2626 14.82398481   431
VELOX-II                
1 41171U 15077F   24131.89155928  .00233790  00000+0  25959-2 0  9997
2 41171  14.9906 349.5933 0003680 309.2659  50.7341 15.60773197465924
HORYU-4                 
1 41340U 16012D   24131.60831433  .00017356  00000+0  89184-3 0  9995
2 41340  31.0018 220.3448 0009309 310.4329  49.5498 15.15269175452443
RAVAN                   
1 41849U 16067B   24131.43192363  .00015755  00000+0  89029-3 0  9991
2 41849  98.0631 306.9325 0014155 154.9414 205.2505 15.13114307410276
CELTEE 1                
1 41850U 16067C   24131.90056770  .00012656  00000+0  87262-3 0  9990
2 41850  98.0995 299.5009 0000565  53.3558 306.7719 15.05970630409810
OPTICUBE 04             
1 41851U 16067D   24131.39536033  .00006403  00000+0  48677-3 0  9999
2 41851  98.0743 294.7671 0018672 180.2445 179.8773 15.02380240409567
AEROCUBE 8D             
1 41852U 16067E   24131.45421106  .00011241  00000+0  75321-3 0  9993
2 41852  98.1055 298.6887 0004416 221.2648 138.8244 15.07062261409719
AEROCUBE 8C             
1 41853U 16067F   24131.93140560  .00016958  00000+0  11334-2 0  9992
2 41853  98.0867 297.8633 0008657 159.6136 200.5437 15.07027059409770
PROMETHEUS 2-1          
1 41854U 16067G   24131.74491208  .00024536  00000+0  12981-2 0  9990
2 41854  98.0988 304.4196 0013739 182.2426 177.8745 15.15366346410061
PROMETHEUS 2-3          
1 41855U 16067H   24131.93869415  .00037456  00000+0  19766-2 0  9994
2 41855  98.0917 304.1509 0011606 190.3613 169.7380 15.15380502410096
DIDO-2                  
1 42000U 17008BE  24131.88675141  .00261593  00000+0  16909-2 0  9995
2 42000  97.1364 192.3355 0004510 228.5553 131.5325 15.75329104402908
AALTO-1                 
1 42775U 17036L   24131.80548236  .00150923  00000+0  17873-2 0  9996
2 42775  97.1079 161.1409 0002822   5.2755 354.8532 15.60742728383264
URSA MAIOR              
1 42776U 17036M   24131.82509389  .00296858  00000+0  19962-2 0  9994
2 42776  97.1030 164.8052 0000885 252.2044 107.9125 15.74318479383495
CICERO 6                
1 42793U 17036AE  24131.62657862  .00335788  00000+0  15891-2 0  9994
2 42793  97.0840 168.9443 0001852 198.9270 161.1931 15.82124566383851
CORVUS BC2              
1 42846U 17042X   24131.77161984  .00006057  00000+0  52643-3 0  9992
2 42846  97.3739 318.9691 0008412 178.0091 182.1167 14.97302485371844
CORVUS BC1              
1 42847U 17042Y   24131.80332325  .00007384  00000+0  63808-3 0  9995
2 42847  97.3740 319.3954 0008471 170.9222 189.2156 14.97460378371860
MIRATA                  
1 43015U 17073C   24131.62446195  .00034285  00000+0  16663-2 0  9994
2 43015  97.5997  16.8369 0175892  29.7661 331.3433 15.05705499350673
MAKERSAT 0              
1 43016U 17073D   24131.41201936  .00023193  00000+0  13340-2 0  9999
2 43016  97.5855  11.4609 0201172  50.0105 311.8587 14.96891279350265
CORVUS BC3              
1 43118U 18004H   24131.74162565  .00265644  00000+0  14120-2 0  9993
2 43118  97.2849 216.6226 0002751 296.5429  63.5556 15.79754643352994
GOMX-4B                 
1 43196U 18015E   24131.93354895  .00116891  00000+0  14989-2 0  9993
2 43196  97.6064 302.8229 0008113  98.3688 261.8487 15.58721917349714
GOMX-4A                 
1 43197U 18015F   24131.92244576  .00160864  00000+0  14447-2 0  9995
2 43197  97.5980 307.3455 0005780  89.8975 270.2948 15.67741595350029
CICERO 10               
1 43690U 18088A   24131.66896298  .00131761  00000+0  11195-2 0  9999
2 43690  85.0156 206.2940 0004711 109.0806 251.0971 15.69202094306304
PROXIMA I               
1 43694U 18088E   24131.63352150  .00835885  34439-3  13894-2 0  9997
2 43694  84.9991 199.0003 0006461 256.5460 103.5106 16.03042430306834
PROXIMA II              
1 43696U 18088G   24131.68595609  .00658914  19086-3  13824-2 0  9992
2 43696  85.0012 199.1849 0005964 257.1191 102.9427 15.98942926306815
SIRION PATHFINDER-2     
1 43759U 18099B   24131.66705707  .00007714  00000+0  58841-3 0  9991
2 43759  97.5301 188.8771 0013415  61.3490 298.9083 15.02216215296878
CORVUS BC4              
1 43767U 18099K   24131.88377051  .00011184  00000+0  86533-3 0  9996
2 43767  97.5184 186.4058 0011145 118.8819 241.3526 15.01585540296793
MOVE-II                 
1 43780U 18099Y   24131.64286299  .00025356  00000+0  13972-2 0  9990
2 43780  97.5235 195.0184 0008617 111.3320 248.8832 15.13954160297240
SPACEBEE-7              
1 43816U 18099BL  24131.45899393  .00020586  00000+0  12569-2 0  9995
2 43816  97.5500 195.6423 0010988  65.1425 295.0946 15.10278313296710
SPACEBEE-6              
1 43818U 18099BN  24131.54796453  .00039510  00000+0  18055-2 0  9993
2 43818  97.5429 200.4779 0009070  71.6752 288.5469 15.20414833297185
SHIELDS 1               
1 43850U 18104B   24131.75766365  .00019423  00000+0  54391-3 0  9993
2 43850  85.0207 308.5004 0010395 202.2785 157.8014 15.36447899300418
SONATE                  
1 44400U 19038Q   24131.94091537  .00042640  00000+0  13578-2 0  9993
2 44400  97.7127 124.4228 0014670 231.6251 128.3673 15.32337235268378
